STARLINK-2372           
1 47912U 21021BE  21204.76214167 -.00000397  00000-0 -77680-5 0  9996
2 47912  53.0515 298.0309 0001230  68.3107 291.8013 15.06390101 21324
STARLINK-2374           
1 47913U 21021BF  21204.72340123 -.00000246  00000-0  23954-5 0  9992
2 47913  53.0553 308.1545 0000889 108.7041 251.4044 15.06408751 21346
STARLINK-2375           
1 47914U 21021BG  21204.78701836 -.00000554  00000-0 -18308-4 0  9990
2 47914  53.0551 307.8690 0000856 101.8867 258.2218 15.06391213 21348
STARLINK-2376           
1 47915U 21021BH  21204.65568881 -.00000105  00000-0  11855-4 0  9999
2 47915  53.0552 303.4596 0001186  85.9180 274.1945 15.06399485 21404
STARLINK-2378           
1 47916U 21021BJ  21204.87797132 -.00331039  00000-0 -12727-1 0  9997
2 47916  53.0436 288.1567 0001357 201.9703 158.1237 15.27375491 21616
STARLINK-2397           
1 47917U 21021BK  21204.96486935 -.00000704  00000-0 -28416-4 0  9991
2 47917  53.0530 297.0723 0000971 104.4014 255.7083 15.06391350 21036
STARLINK-2398           
1 47918U 21021BL  21204.77319017 -.00000090  00000-0  12845-4 0  9993
2 47918  53.0541 297.9333 0001209 112.3625 247.7493 15.06409023 21488
STARLINK-2405           
1 47919U 21021BM  21204.75752365  .00000237  00000-0  34788-4 0  9991
2 47919  53.0506 308.0163 0000813 113.8595 246.2479 15.06401138 21327
STARLINK-2087           
1 47977U 21024A   21205.09801001  .00001145  00000-0  95727-4 0  9997
2 47977  53.0560 351.4778 0001256 111.7894 248.3228 15.06398923 19527
STARLINK-1647           
1 47978U 21024B   21204.85088092 -.00000776  00000-0 -34999-4 0  9993
2 47978  53.0591   2.5614 0001628 110.3176 249.7987 15.04765879 19866
STARLINK-2325           
1 47979U 21024C   21205.02071881 -.00003723  00000-0 -22060-4 0  9993
2 47979  53.0476 319.8001 0003297  23.9667 336.1504 15.73218863 19948
STARLINK-2312           
1 47980U 21024D   21204.57591755  .00007841  00000-0  60186-4 0  9995
2 47980  53.0479 322.0101 0004867   5.4935 354.6135 15.73217019 20407
STARLINK-2303           
1 47981U 21024E   21204.90910964 -.00000438  00000-0 -10489-4 0  9998
2 47981  53.0626   2.3190 0001407 101.4200 258.6947 15.06404438 19341
STARLINK-2317           
1 47982U 21024F   21205.02037774 -.00002328  00000-0 -12126-4 0  9992
2 47982  53.0482 319.8001 0003145  11.5065 348.6025 15.73229436 19940
STARLINK-2289           
1 47983U 21024G   21205.02026569  .00006516  00000-0  50758-4 0  9997
2 47983  53.0485 319.8005 0003337  16.5158 343.5968 15.73225775 19941
STARLINK-2316           
1 47984U 21024H   21205.02016150  .00015873  00000-0  11718-3 0  9991
2 47984  53.0477 319.7966 0003226  22.6528 337.4632 15.73218595 19946
STARLINK-2308           
1 47985U 21024J   21204.82946365  .00037838  00000-0  27203-3 0  9990
2 47985  53.0474 320.7441 0004646   6.2737 353.8338 15.73252539 20382
STARLINK-2313           
1 47986U 21024K   21205.01395982  .00033863  00000-0  24432-3 0  9991
2 47986  53.0339 314.3808 0001858 348.1038  11.9935 15.73233851 20294
STARLINK-2311           
1 47987U 21024L   21204.70218447  .00004110  00000-0  33680-4 0  9996
2 47987  53.0477 321.3698 0002620  30.4319 329.6851 15.73213069 20378
STARLINK-2306           
1 47988U 21024M   21204.73633869 -.00000639  00000-0 -24053-4 0  9997
2 47988  53.0557 338.0971 0001212  96.8962 263.2165 15.06386313 20137
STARLINK-2305           
1 47989U 21024N   21204.82901652  .00022252  00000-0  16231-3 0  9997
2 47989  53.0477 320.7360 0003450  13.5384 346.5726 15.73226753 20390
STARLINK-2307           
1 47990U 21024P   21204.82890952  .00015446  00000-0  11415-3 0  9995
2 47990  53.0475 320.7374 0003732  13.0069 347.1045 15.73218606 20381
STARLINK-2279           
1 47991U 21024Q   21205.01936771  .00010169  00000-0  76678-4 0  9998
2 47991  53.0477 319.7909 0002759  24.2835 335.8312 15.73231796 19945
STARLINK-2229           
1 47992U 21024R   21204.70162572  .00004015  00000-0  32989-4 0  9994
2 47992  53.0463 321.3679 0002595   7.1089 352.9965 15.73221069 20378
STARLINK-2273           
1 47993U 21024S   21205.02038387 -.00322503  00000-0 -10694-1 0  9990
2 47993  53.0483 322.6746 0003698  45.8383 314.2921 15.32101283 19901
STARLINK-2290           
1 47994U 21024T   21204.77613893  .00001077  00000-0  96936-4 0  9997
2 47994  53.0519 336.8815 0001179 105.8798 254.2320 15.03931322 20153
STARLINK-2309           
1 47995U 21024U   21205.01892023  .00005442  00000-0  43129-4 0  9996
2 47995  53.0478 319.7870 0003571  22.5109 337.6065 15.73226428 19946
STARLINK-2260           
1 47996U 21024V   21205.01880992  .00001284  00000-0  13580-4 0  9997
2 47996  53.0479 319.7871 0003249  19.0882 341.0257 15.73220838 19941
STARLINK-2266           
1 47997U 21024W   21205.05700398  .00000915  00000-0  80280-4 0  9994
2 47997  53.0539 336.6573 0001145 106.2086 253.9029 15.06399891 19720
STARLINK-2296           
1 47998U 21024X   21205.01859170  .00009094  00000-0  69077-4 0  9992
2 47998  53.0477 319.7821 0003981  29.1463 330.9776 15.73221037 19941
STARLINK-2218           
1 47999U 21024Y   21204.63731253  .00026818  00000-0  19448-3 0  9990
2 47999  53.0479 321.6765 0003324  21.1674 338.9481 15.73242199 20350
STARLINK-2270           
1 48000U 21024Z   21204.76425898  .00018370  00000-0  13488-3 0  9995
2 48000  53.0476 321.0445 0003177  10.0629 350.0452 15.73218198 20381
STARLINK-2262           
1 48001U 21024AA  21205.01825072  .00004924  00000-0  39474-4 0  9997
2 48001  53.0475 319.7795 0002830  21.7691 338.3447 15.73210389 19943
STARLINK-2265           
1 48002U 21024AB  21204.63698208  .00013431  00000-0  99847-4 0  9997
2 48002  53.0483 321.6731 0002749  21.2381 338.8750 15.73223406 20358
STARLINK-2263           
1 48003U 21024AC  21204.84681740  .00000882  00000-0  81319-4 0  9995
2 48003  53.0434   2.1303 0001527 115.7044 244.4102 15.04774106 19802
STARLINK-2261           
1 48004U 21024AD  21205.01791066  .00015842  00000-0  11688-3 0  9992
2 48004  53.0478 319.7789 0003634  24.8929 335.2264 15.73233709 19947
STARLINK-2254           
1 48005U 21024AE  21204.83489696 -.00000853  00000-0 -40432-4 0  9993
2 48005  53.0546 332.2597 0001101 114.6727 245.4376 15.04762921 20228
STARLINK-2277           
1 48006U 21024AF  21204.70005103  .00019211  00000-0  14068-3 0  9998
2 48006  53.0480 321.3537 0003155  14.8791 345.2319 15.73245081 20429
STARLINK-2259           
1 48007U 21024AG  21204.76345644  .00006991  00000-0  54100-4 0  9995
2 48007  53.0475 321.0389 0002627 356.4912   3.6087 15.73239688 20433
STARLINK-2271           
1 48008U 21024AH  21204.69983796  .00006639  00000-0  51645-4 0  9994
2 48008  53.0477 321.3490 0003004  16.0576 344.0537 15.73220262 20370
STARLINK-2153           
1 48009U 21024AJ  21204.88789805 -.00000727  00000-0 -29911-4 0  9996
2 48009  53.0553 342.4216 0001264 118.9025 241.2091 15.06396955 20094
STARLINK-2226           
1 48010U 21024AK  21204.84625362 -.00000832  00000-0 -38915-4 0  9992
2 48010  53.0449   2.1536 0001468  92.6578 267.4578 15.04764135 19817
STARLINK-2272           
1 48011U 21024AL  21204.72202686 -.00000586  00000-0 -20460-4 0  9992
2 48011  53.0555 343.1628 0001346 115.8097 244.3030 15.06400704 20129
STARLINK-2216           
1 48012U 21024AM  21204.74652666 -.00426041  00000-0 -61822-2 0  9995
2 48012  53.0489 321.6367 0001067  26.0491 334.0573 15.56661741 20425
STARLINK-2243           
1 48013U 21024AN  21204.83222064 -.00255861  00000-0 -10519-1 0  9997
2 48013  53.0462 325.8554 0001099 109.0378 251.0738 15.24819770 20324
STARLINK-2283           
1 48014U 21024AP  21204.69915272  .00006354  00000-0  49620-4 0  9999
2 48014  53.0476 321.3447 0002762  10.0052 350.1020 15.73219415 20420
STARLINK-2281           
1 48015U 21024AQ  21205.01667754  .00010511  00000-0  79123-4 0  9997
2 48015  53.0479 319.7670 0004049  10.8390 349.2715 15.73223975 19947
STARLINK-2284           
1 48016U 21024AR  21204.76246125  .00030906  00000-0  22335-3 0  9996
2 48016  53.0478 321.0303 0003058  16.9266 343.1853 15.73241556 20431
STARLINK-2239           
1 48017U 21024AS  21204.70866955 -.00000453  00000-0 -11508-4 0  9997
2 48017  53.0565 348.2281 0001519 137.3035 222.8073 15.06401102 19994
STARLINK-2282           
1 48018U 21024AT  21205.09684178  .00006117  00000-0  43813-3 0  9990
2 48018  53.0806 345.8929 0001009 210.1405 149.9526 15.05623101 19592
STARLINK-2285           
1 48019U 21024AU  21204.72896740 -.00000398  00000-0 -78384-5 0  9990
2 48019  53.0538 338.1299 0001273 105.1006 255.0124 15.06399680 20131
STARLINK-2294           
1 48020U 21024AV  21204.69847822  .00019087  00000-0  13993-3 0  9991
2 48020  53.0480 321.3417 0003024   7.8395 352.2670 15.73224097 20364
STARLINK-2301           
1 48021U 21024AW  21204.76190030  .00015497  00000-0  11448-3 0  9996
2 48021  53.0473 321.0238 0002923  14.7301 345.3801 15.73227115 19907
STARLINK-2298           
1 48022U 21024AX  21204.85150482 -.00000857  00000-0 -38681-4 0  9999
2 48022  53.0576 357.5904 0001502 112.4168 247.6981 15.06392049 19936
STARLINK-2292           
1 48023U 21024AY  21204.80083813  .00000323  00000-0  40570-4 0  9994
2 48023  53.0561 357.8110 0001485 118.9845 241.1293 15.06398887 19926
STARLINK-2302           
1 48024U 21024AZ  21204.76156526  .00016327  00000-0  12045-3 0  9998
2 48024  53.0480 321.0255 0002961  11.2641 348.8443 15.73208973 20383
STARLINK-2318           
1 48025U 21024BA  21204.76145354  .00036713  00000-0  26429-3 0  9998
2 48025  53.0482 321.0218 0003211  19.9133 340.2010 15.73242897 20373
STARLINK-2278           
1 48026U 21024BB  21204.84445355 -.00000819  00000-0 -38001-4 0  9992
2 48026  53.0489   2.2021 0001523 105.1330 254.9826 15.04761465 19816
STARLINK-2300           
1 48027U 21024BC  21204.61794005 -.00230944  00000-0 -16337-1 0  9996
2 48027  53.0521 338.0607 0002576  24.5803 335.5308 15.05614876 20123
